NORAD_CAT_ID,OBJECT_NAME,OBJECT_TYPE,EPOCH,MEAN_MOTION,ECCENTRICITY,INCLINATION,RA_OF_ASC_NODE,ARG_OF_PERICENTER,MEAN_ANOMALY,BSTAR,MEAN_MOTION_DOT,MEAN_MOTION_DDOT,TLE_LINE0,TLE_LINE1,TLE_LINE2,SEMIMAJOR_AXIS,PERIOD,APOGEE,PERIGEE,DECAYED
55429.0,STARLINK-5645,PAYLOAD,2024-03-27 04:31:43,14.98328355,0.0002796,69.9992,81.0396,264.3532,95.7308,0.00032664,3.806e-05,0.0,0 STARLINK-5645,1 55429U 23014AQ  24087.18869539  .00003806  00000-0  32664-3 0  9996,2 55429  69.9992  81.0396 0002796 264.3532  95.7308 14.98328355 63893,6950.198,96.107,574.006,570.12,0.0
55429.0,STARLINK-5645,PAYLOAD,2024-03-27 09:20:07,14.98334273,0.0002799,69.9991,80.5343,264.8575,95.2265,0.00038131,4.46e-05,0.0,0 STARLINK-5645,1 55429U 23014AQ  24087.38897208  .00004460  00000-0  38131-3 0  9994,2 55429  69.9991  80.5343 0002799 264.8575  95.2265 14.98334273 64864,6950.18,96.107,573.99,570.099,0.0
55429.0,STARLINK-5645,PAYLOAD,2024-03-27 17:20:47,14.98339514,0.0002876,69.9992,79.693,261.8952,98.1881,0.00042961,5.038e-05,0.0,0 STARLINK-5645,1 55429U 23014AQ  24087.72276948  .00005038  00000-0  42961-3 0  9992,2 55429  69.9992  79.6930 0002876 261.8952  98.1881 14.98339514 63978,6950.163,96.106,574.027,570.03,0.0
55429.0,STARLINK-5645,PAYLOAD,2024-03-27 22:09:11,14.98341279,0.0002128,69.9989,79.1875,267.8653,92.2262,0.00053962,6.353e-05,0.0,0 STARLINK-5645,1 55429U 23014AQ  24087.92304859  .00006353  00000-0  53962-3 0  9991,2 55429  69.9989  79.1875 0002128 267.8653  92.2262 14.98341279 64948,6950.158,96.106,573.502,570.544,0.0
55429.0,STARLINK-5645,PAYLOAD,2024-03-28 04:33:42,14.9833394,0.0002335,69.9996,78.5126,257.5564,102.5334,0.0013452,0.00015996,0.0,0 STARLINK-5645,1 55429U 23014AQ  24088.19007101  .00015996  00000-0  13452-2 0  9993,2 55429  69.9996  78.5126 0002335 257.5564 102.5334 14.98333940 64047,6950.181,96.107,573.669,570.423,0.0
55429.0,STARLINK-5645,PAYLOAD,2024-03-28 09:22:06,14.98351435,0.0001904,69.9997,78.0109,237.6333,122.4642,0.0011348,0.0001348,0.0,0 STARLINK-5645,1 55429U 23014AQ  24088.39035268  .00013480  00000-0  11348-2 0  9998,2 55429  69.9997  78.0109 0001904 237.6333 122.4642 14.98351435 65018,6950.127,96.106,573.315,570.668,0.0
55429.0,STARLINK-5645,PAYLOAD,2024-03-29 04:35:41,14.98404097,0.0002579,69.9997,75.9906,260.8061,99.2807,0.00023905,2.766e-05,0.0,0 STARLINK-5645,1 55429U 23014AQ  24089.19144837  .00002766  00000-0  23905-3 0  9998,2 55429  69.9997  75.9906 0002579 260.8061  99.2807 14.98404097 64199,6949.964,96.102,573.621,570.036,0.0
55429.0,STARLINK-5645,PAYLOAD,2024-03-29 09:24:04,14.984045,0.0002632,69.9997,75.4856,261.0798,99.0063,0.00022102,2.55e-05,0.0,0 STARLINK-5645,1 55429U 23014AQ  24089.39171830  .00002550  00000-0  22102-3 0  9992,2 55429  69.9997  75.4856 0002632 261.0798  99.0063 14.98404500 65167,6949.963,96.102,573.657,569.998,0.0
55429.0,STARLINK-5645,PAYLOAD,2024-03-29 20:37:00,14.98428436,0.0002322,70.0028,74.31,270.3841,89.7052,-0.0010482,-0.00012609,0.0,0 STARLINK-5645,1 55429U 23014AQ  24089.85903502 -.00012609  00000-0 -10482-2 0  9997,2 55429  70.0028  74.3100 0002322 270.3841  89.7052 14.98428436 64294,6949.889,96.101,573.367,570.14,0.0
55429.0,STARLINK-5645,PAYLOAD,2024-03-29 22:13:09,14.98386908,0.0001857,70.0033,74.1407,272.0483,88.0464,-0.00032495,-3.973e-05,0.0,0 STARLINK-5645,1 55429U 23014AQ  24089.92580631 -.00003973  00000-0 -32495-3 0  9992,2 55429  70.0033  74.1407 0001857 272.0483  88.0464 14.98386908 65243,6950.017,96.103,573.173,570.591,0.0
55429.0,STARLINK-5645,PAYLOAD,2024-03-30 04:37:42,14.98370978,0.0002466,69.9999,73.4644,270.2872,89.8005,-0.00051199,-6.203e-05,0.0,0 STARLINK-5645,1 55429U 23014AQ  24090.19285118 -.00006203  00000-0 -51199-3 0  9996,2 55429  69.9999  73.4644 0002466 270.2872  89.8005 14.98370978 64345,6950.066,96.104,573.645,570.217,0.0
55429.0,STARLINK-5645,PAYLOAD,2024-03-30 09:26:05,14.98372977,0.0002574,69.9998,72.9601,267.3819,92.7045,-0.00051718,-6.265e-05,0.0,0 STARLINK-5645,1 55429U 23014AQ  24090.39312336 -.00006265  00000-0 -51718-3 0  9996,2 55429  69.9998  72.9601 0002574 267.3819  92.7045 14.98372977 65315,6950.06,96.104,573.714,570.136,0.0
55429.0,STARLINK-5645,PAYLOAD,2024-03-30 15:50:37,14.98369134,0.000264,69.9998,72.2861,270.3733,89.7124,-0.00054033,-6.54e-05,0.0,0 STARLINK-5645,1 55429U 23014AQ  24090.66015854 -.00006540  00000-0 -54033-3 0  9990,2 55429  69.9998  72.2861 0002640 270.3733  89.7124 14.98369134 65358,6950.072,96.104,573.772,570.102,0.0
55429.0,STARLINK-5645,PAYLOAD,2024-03-31 04:39:41,14.98358194,0.0002657,69.9996,70.9397,265.9031,94.1824,-0.00042304,-5.141e-05,0.0,0 STARLINK-5645,1 55429U 23014AQ  24091.19423027 -.00005141  00000-0 -42304-3 0  9998,2 55429  69.9996  70.9397 0002657 265.9031  94.1824 14.98358194 64499,6950.106,96.105,573.817,570.124,0.0
55429.0,STARLINK-5645,PAYLOAD,2024-03-31 09:28:05,14.98358225,0.0002623,69.9997,70.4345,266.1487,93.9372,-0.00038876,-4.732e-05,0.0,0 STARLINK-5645,1 55429U 23014AQ  24091.39450599 -.00004732  00000-0 -38876-3 0  9998,2 55429  69.9997  70.4345 0002623 266.1487  93.9372 14.98358225 65467,6950.106,96.105,573.794,570.148,0.0
55429.0,STARLINK-5645,PAYLOAD,2024-03-31 15:52:37,14.98340144,0.0002755,69.9996,69.7606,269.5617,90.5226,-0.00019519,-2.422e-05,0.0,0 STARLINK-5645,1 55429U 23014AQ  24091.66154941 -.00002422  00000-0 -19519-3 0  9997,2 55429  69.9996  69.7606 0002755 269.5617  90.5226 14.98340144 64567,6950.162,96.106,573.941,570.112,0.0
55429.0,STARLINK-5645,PAYLOAD,2024-04-01 07:53:58,14.98330721,0.0002689,69.9997,68.0774,271.8398,88.2453,-7.4476e-06,-1.82e-06,0.0,0 STARLINK-5645,1 55429U 23014AQ  24092.32914676 -.00000182  00000-0 -74476-5 0  9996,2 55429  69.9997  68.0774 0002689 271.8398  88.2453 14.98330721 65606,6950.191,96.107,573.925,570.187,0.0
55429.0,STARLINK-5645,PAYLOAD,2024-04-01 20:43:01,14.9834572,0.0003464,69.9998,66.7314,267.3738,92.7025,0.00015828,1.797e-05,0.0,0 STARLINK-5645,1 55429U 23014AQ  24092.86320611  .00001797  00000-0  15828-3 0  9990,2 55429  69.9998  66.7314 0003464 267.3738  92.7025 14.98345720 64746,6950.144,96.106,574.417,569.602,0.0
55429.0,STARLINK-5645,PAYLOAD,2024-04-02 04:43:43,14.98320383,0.0002785,69.9997,65.8889,272.5985,87.4855,-0.00014264,-1.794e-05,0.0,0 STARLINK-5645,1 55429U 23014AQ  24093.19702758 -.00001794  00000-0 -14264-3 0  9995,2 55429  69.9997  65.8889 0002785 272.5985  87.4855 14.98320383 64794,6950.223,96.108,574.023,570.152,0.0
55429.0,STARLINK-5645,PAYLOAD,2024-04-02 07:55:59,14.9831859,0.0002831,69.9998,65.5523,272.7075,87.376,-0.00015872,-1.986e-05,0.0,0 STARLINK-5645,1 55429U 23014AQ  24093.33054965 -.00001986  00000-0 -15872-3 0  9990,2 55429  69.9998  65.5523 0002831 272.7075  87.3760 14.98318590 65759,6950.228,96.108,574.061,570.126,0.0
55429.0,STARLINK-5645,PAYLOAD,2024-04-02 15:56:39,14.98319816,0.0002881,69.9999,64.711,272.5451,87.5379,-0.00014259,-1.793e-05,0.0,0 STARLINK-5645,1 55429U 23014AQ  24093.66434965 -.00001793  00000-0 -14259-3 0  9992,2 55429  69.9999  64.7110 0002881 272.5451  87.5379 14.98319816 65800,6950.224,96.108,574.092,570.087,0.0
55429.0,STARLINK-5645,PAYLOAD,2024-04-03 04:45:44,14.98321735,0.000295,69.9998,63.3647,273.0513,87.0308,-0.00011017,-1.407e-05,0.0,0 STARLINK-5645,1 55429U 23014AQ  24094.19843016 -.00001407  00000-0 -11017-3 0  9993,2 55429  69.9998  63.3647 0002950 273.0513  87.0308 14.98321735 64945,6950.218,96.108,574.134,570.033,0.0
55429.0,STARLINK-5645,PAYLOAD,2024-04-03 07:58:00,14.98322923,0.00029,69.9999,63.0279,272.8931,87.1896,-9.2846e-05,-1.2e-05,0.0,0 STARLINK-5645,1 55429U 23014AQ  24094.33194946 -.00001200  00000-0 -92846-4 0  9991,2 55429  69.9999  63.0279 0002900 272.8931  87.1896 14.98322923 65900,6950.215,96.107,574.095,570.064,0.0
55429.0,STARLINK-5645,PAYLOAD,2024-04-04 04:47:44,14.9834439,0.0002979,70.0,60.8397,269.1236,90.9582,-0.00023431,-2.889e-05,0.0,0 STARLINK-5645,1 55429U 23014AQ  24095.19981766 -.00002889  00000-0 -23431-3 0  9997,2 55429  70.0000  60.8397 0002979 269.1236  90.9582 14.98344390 65091,6950.148,96.106,574.084,569.943,0.0
55429.0,STARLINK-5645,PAYLOAD,2024-04-04 14:24:33,14.98321985,0.0002969,70.0002,59.8298,273.5783,86.5037,0.0001482,1.675e-05,0.0,0 STARLINK-5645,1 55429U 23014AQ  24095.60038327  .00001675  00000-0  14820-3 0  9991,2 55429  70.0002  59.8298 0002969 273.5783  86.5037 14.98321985 66098,6950.218,96.108,574.146,570.019,0.0
55429.0,STARLINK-5645,PAYLOAD,2024-04-04 20:49:05,14.98324444,0.0002943,70.0003,59.1566,273.4315,86.6507,0.00011453,1.274e-05,0.0,0 STARLINK-5645,1 55429U 23014AQ  24095.86742408  .00001274  00000-0  11453-3 0  9995,2 55429  70.0003  59.1566 0002943 273.4315  86.6507 14.98324444 65198,6950.21,96.107,574.121,570.03,0.0
55429.0,STARLINK-5645,PAYLOAD,2024-04-04 22:25:13,14.98324408,0.0002939,70.0003,58.9883,273.4377,86.6446,0.00011131,1.235e-05,0.0,0 STARLINK-5645,1 55429U 23014AQ  24095.93418440  .00001235  00000-0  11131-3 0  9999,2 55429  70.0003  58.9883 0002939 273.4377  86.6446 14.98324408 66148,6950.21,96.107,574.118,570.033,0.0
55429.0,STARLINK-5645,PAYLOAD,2024-04-05 14:26:33,14.9834181,0.0002958,70.0004,57.3054,276.1736,83.9086,-0.00017058,-2.128e-05,0.0,0 STARLINK-5645,1 55429U 23014AQ  24096.60178017 -.00002128  00000-0 -17058-3 0  9995,2 55429  70.0004  57.3054 0002958 276.1736  83.9086 14.98341810 66249,6950.156,96.106,574.077,569.966,0.0
55429.0,STARLINK-5645,PAYLOAD,2024-04-05 20:51:06,14.9832895,0.0002783,70.0006,56.6324,272.5916,87.4924,-2.2218e-05,-3.58e-06,0.0,0 STARLINK-5645,1 55429U 23014AQ  24096.86882645 -.00000358  00000-0 -22218-4 0  9990,2 55429  70.0006  56.6324 0002783 272.5916  87.4924 14.98328950 65349,6950.196,96.107,573.995,570.127,0.0
55429.0,STARLINK-5645,PAYLOAD,2024-04-06 06:27:55,14.98308966,0.0002921,70.0007,55.6224,270.9399,89.1425,0.00034264,3.995e-05,0.0,0 STARLINK-5645,1 55429U 23014AQ  24097.26939001  .00003995  00000-0  34264-3 0  9995,2 55429  70.0007  55.6224 0002921 270.9399  89.1425 14.98308966 65406,6950.258,96.108,574.153,570.093,0.0
